{
  "norad_id": 56805,
  "name": "STARLINK-6064",
  "history": [
    {
      "epoch": "2026-03-28T20:14:05.668224Z",
      "apogee_km": 574.0536895226878,
      "perigee_km": 570.0310647028018,
      "latitude_deg": 5.488531385555311e-05,
      "longitude_deg": 146.33194822948306,
      "height_km": 574.4947458994319,
      "semi_major_axis_km": 6950.179377112744,
      "eccentricity": 0.00028939,
      "inclination_deg": 69.9981,
      "raan_deg": 276.1133,
      "arg_perigee_deg": 269.2835,
      "mean_anomaly_deg": 90.7993,
      "mean_motion_rev_day": 14.9833437
    },
    {
      "epoch": "2026-03-28T23:26:21.723648Z",
      "apogee_km": 574.0517926617222,
      "perigee_km": 570.0304196095121,
      "latitude_deg": 4.500168877848353e-05,
      "longitude_deg": 97.79674451003531,
      "height_km": 574.4939799351404,
      "semi_major_axis_km": 6950.178106135617,
      "eccentricity": 0.0002893,
      "inclination_deg": 69.9981,
      "raan_deg": 275.7766,
      "arg_perigee_deg": 269.2689,
      "mean_anomaly_deg": 90.8139,
      "mean_motion_rev_day": 14.98334781
    },
    {
      "epoch": "2026-03-30T05:52:55.101216Z",
      "apogee_km": 574.1308477112398,
      "perigee_km": 569.9872798219421,
      "latitude_deg": 5.5365437684835826e-05,
      "longitude_deg": -3.291857513031295,
      "height_km": 574.4817621576532,
      "semi_major_axis_km": 6950.196063766591,
      "eccentricity": 0.00029809,
      "inclination_deg": 69.998,
      "raan_deg": 272.5773,
      "arg_perigee_deg": 270.1269,
      "mean_anomaly_deg": 89.9549,
      "mean_motion_rev_day": 14.98328974
    },
    {
      "epoch": "2026-03-30T13:53:35.377152Z",
      "apogee_km": 574.1367921768206,
      "perigee_km": 569.978768647492,
      "latitude_deg": -2.1003091009472204e-05,
      "longitude_deg": -124.63040896488535,
      "height_km": 574.482095609484,
      "semi_major_axis_km": 6950.194780412156,
      "eccentricity": 0.00029913,
      "inclination_deg": 69.9979,
      "raan_deg": 271.7356,
      "arg_perigee_deg": 270.0822,
      "mean_anomaly_deg": 89.9994,
      "mean_motion_rev_day": 14.98329389
    },
    {
      "epoch": "2026-03-30T21:54:15.711840Z",
      "apogee_km": 574.1395255862426,
      "perigee_km": 569.9777484387987,
      "latitude_deg": 8.172395780986357e-06,
      "longitude_deg": 114.03083232235295,
      "height_km": 574.4779474448515,
      "semi_major_axis_km": 6950.19563701252,
      "eccentricity": 0.0002994,
      "inclination_deg": 69.9979,
      "raan_deg": 270.8939,
      "arg_perigee_deg": 270.2199,
      "mean_anomaly_deg": 89.8617,
      "mean_motion_rev_day": 14.98329112
    },
    {
      "epoch": "2026-03-31T18:44:00.267360Z",
      "apogee_km": 574.1796918599966,
      "perigee_km": 569.9206171717096,
      "latitude_deg": 9.766235619807488e-06,
      "longitude_deg": 158.5516676878331,
      "height_km": 574.4654055630839,
      "semi_major_axis_km": 6950.187154515853,
      "eccentricity": 0.0003064,
      "inclination_deg": 69.998,
      "raan_deg": 268.7058,
      "arg_perigee_deg": 270.3262,
      "mean_anomaly_deg": 89.7546,
      "mean_motion_rev_day": 14.98331855
    },
    {
      "epoch": "2026-03-31T21:56:16.341792Z",
      "apogee_km": 574.1669877639106,
      "perigee_km": 569.9301546397046,
      "latitude_deg": -6.921128630481964e-05,
      "longitude_deg": 110.01635977750563,
      "height_km": 574.4617402455807,
      "semi_major_axis_km": 6950.185571201807,
      "eccentricity": 0.0003048,
      "inclination_deg": 69.998,
      "raan_deg": 268.3691,
      "arg_perigee_deg": 270.384,
      "mean_anomaly_deg": 89.6969,
      "mean_motion_rev_day": 14.98332367
    },
    {
      "epoch": "2026-04-02T04:22:49.401408Z",
      "apogee_km": 574.1640338114194,
      "perigee_km": 569.927480409995,
      "latitude_deg": 2.2730362310167783e-05,
      "longitude_deg": 8.930016413326939,
      "height_km": 574.4549261675237,
      "semi_major_axis_km": 6950.182757110707,
      "eccentricity": 0.00030478,
      "inclination_deg": 69.998,
      "raan_deg": 265.1707,
      "arg_perigee_deg": 270.492,
      "mean_anomaly_deg": 89.589,
      "mean_motion_rev_day": 14.98333277
    },
    {
      "epoch": "2026-04-02T22:00:18.057888Z",
      "apogee_km": 574.1669262306268,
      "perigee_km": 569.9262022270768,
      "latitude_deg": 4.7713014554585776e-05,
      "longitude_deg": 101.98530626644899,
      "height_km": 574.4251956192473,
      "semi_major_axis_km": 6950.1835642288515,
      "eccentricity": 0.00030508,
      "inclination_deg": 69.999,
      "raan_deg": 263.3192,
      "arg_perigee_deg": 271.3186,
      "mean_anomaly_deg": 88.7624,
      "mean_motion_rev_day": 14.98333016
    },
    {
      "epoch": "2026-04-03T20:26:11.226912Z",
      "apogee_km": 574.172317080619,
      "perigee_km": 569.9521561041602,
      "latitude_deg": -1.0598929110310333e-05,
      "longitude_deg": 122.23642121591742,
      "height_km": 574.4784862107307,
      "semi_major_axis_km": 6950.199236592389,
      "eccentricity": 0.0003036,
      "inclination_deg": 69.9993,
      "raan_deg": 260.9631,
      "arg_perigee_deg": 270.3038,
      "mean_anomaly_deg": 89.7773,
      "mean_motion_rev_day": 14.98327948
    },
    {
      "epoch": "2026-04-04T20:28:11.711712Z",
      "apogee_km": 574.1364409741182,
      "perigee_km": 569.9607694625029,
      "latitude_deg": -8.007445273235086e-05,
      "longitude_deg": 118.22275578598958,
      "height_km": 574.4319828411134,
      "semi_major_axis_km": 6950.18560521831,
      "eccentricity": 0.0003004,
      "inclination_deg": 69.9995,
      "raan_deg": 258.4385,
      "arg_perigee_deg": 271.2089,
      "mean_anomaly_deg": 88.8725,
      "mean_motion_rev_day": 14.98332356
    },
    {
      "epoch": "2026-04-05T14:05:40.132320Z",
      "apogee_km": 574.1695072829707,
      "perigee_km": 569.9173868854441,
      "latitude_deg": -4.926694925422056e-05,
      "longitude_deg": -148.7216684658972,
      "height_km": 574.4342129313208,
      "semi_major_axis_km": 6950.180447084207,
      "eccentricity": 0.0003059,
      "inclination_deg": 69.9993,
      "raan_deg": 256.5863,
      "arg_perigee_deg": 270.9891,
      "mean_anomaly_deg": 89.0917,
      "mean_motion_rev_day": 14.98334024
    },
    {
      "epoch": "2026-04-05T20:30:12.258720Z",
      "apogee_km": 574.1689795796474,
      "perigee_km": 569.9099114538349,
      "latitude_deg": 7.540320515085233e-06,
      "longitude_deg": 114.20768646372562,
      "height_km": 574.4443399876951,
      "semi_major_axis_km": 6950.176445516741,
      "eccentricity": 0.0003064,
      "inclination_deg": 69.9994,
      "raan_deg": 255.9127,
      "arg_perigee_deg": 270.6076,
      "mean_anomaly_deg": 89.4732,
      "mean_motion_rev_day": 14.98335318
    },
    {
      "epoch": "2026-04-05T20:30:12.259584Z",
      "apogee_km": 574.1687015725902,
      "perigee_km": 569.910189460893,
      "latitude_deg": 3.2061237799405336e-06,
      "longitude_deg": 114.20768128491561,
      "height_km": 574.4443429366263,
      "semi_major_axis_km": 6950.176445516741,
      "eccentricity": 0.00030636,
      "inclination_deg": 69.9994,
      "raan_deg": 255.9127,
      "arg_perigee_deg": 270.6076,
      "mean_anomaly_deg": 89.4732,
      "mean_motion_rev_day": 14.98335318
    },
    {
      "epoch": "2026-04-07T12:33:34.500672Z",
      "apogee_km": 574.2019539242119,
      "perigee_km": 569.904651260119,
      "latitude_deg": 1.9685782179176523e-05,
      "longitude_deg": -132.48873700578142,
      "height_km": 574.446043252897,
      "semi_major_axis_km": 6950.190302592165,
      "eccentricity": 0.00030915,
      "inclination_deg": 69.9996,
      "raan_deg": 251.704,
      "arg_perigee_deg": 270.9272,
      "mean_anomaly_deg": 89.1533,
      "mean_motion_rev_day": 14.98330837
    },
    {
      "epoch": "2026-04-07T20:34:14.419776Z",
      "apogee_km": 573.9166632603756,
      "perigee_km": 570.0857470816854,
      "latitude_deg": 4.8295971789611785e-05,
      "longitude_deg": 106.17483905220917,
      "height_km": 574.5980229480824,
      "semi_major_axis_km": 6950.138205171031,
      "eccentricity": 0.0002756,
      "inclination_deg": 69.9997,
      "raan_deg": 250.8629,
      "arg_perigee_deg": 264.9202,
      "mean_anomaly_deg": 95.1643,
      "mean_motion_rev_day": 14.98347684
    },
    {
      "epoch": "2026-04-08T14:11:43.256832Z",
      "apogee_km": 573.9183035339183,
      "perigee_km": 570.2073138480655,
      "latitude_deg": 1.7795100645293991e-06,
      "longitude_deg": -160.7699541946006,
      "height_km": 574.7415192506936,
      "semi_major_axis_km": 6950.199808690992,
      "eccentricity": 0.00026697,
      "inclination_deg": 70.0011,
      "raan_deg": 249.0121,
      "arg_perigee_deg": 262.2099,
      "mean_anomaly_deg": 97.8757,
      "mean_motion_rev_day": 14.98327763
    },
    {
      "epoch": "2026-04-09T20:38:16.776960Z",
      "apogee_km": 574.224681882909,
      "perigee_km": 569.8960989481593,
      "latitude_deg": -2.2043532023737764e-05,
      "longitude_deg": 98.14133123550577,
      "height_km": 574.5234118953387,
      "semi_major_axis_km": 6950.197390415534,
      "eccentricity": 0.0003114,
      "inclination_deg": 70.0,
      "raan_deg": 245.8133,
      "arg_perigee_deg": 269.0615,
      "mean_anomaly_deg": 91.0187,
      "mean_motion_rev_day": 14.98328545
    },
    {
      "epoch": "2026-04-10T03:02:47.774112Z",
      "apogee_km": 574.410249382795,
      "perigee_km": 569.6236783478807,
      "latitude_deg": 2.739739911381849e-05,
      "longitude_deg": 1.0770013476661096,
      "height_km": 574.1338153521546,
      "semi_major_axis_km": 6950.153963865338,
      "eccentricity": 0.00034435,
      "inclination_deg": 70.0011,
      "raan_deg": 245.1413,
      "arg_perigee_deg": 277.4676,
      "mean_anomaly_deg": 82.6092,
      "mean_motion_rev_day": 14.98342588
    }
  ]
}